NORAD_CAT_ID,OBJECT_NAME,OBJECT_TYPE,EPOCH,MEAN_MOTION,ECCENTRICITY,INCLINATION,RA_OF_ASC_NODE,ARG_OF_PERICENTER,MEAN_ANOMALY,BSTAR,MEAN_MOTION_DOT,MEAN_MOTION_DDOT,TLE_LINE0,TLE_LINE1,TLE_LINE2,SEMIMAJOR_AXIS,PERIOD,APOGEE,PERIGEE,DECAYED
51883.0,STARLINK-3576,PAYLOAD,2024-03-27 21:39:44,15.08875473,0.0001362,53.2165,314.6387,94.1054,266.0094,0.001217,0.00019152,0.0,0 STARLINK-3576,1 51883U 22022AH  24087.90259826  .00019152  00000-0  12170-2 0  9996,2 51883  53.2165 314.6387 0001362  94.1054 266.0094 15.08875473115783,6917.772,95.435,540.579,538.695,0.0
51883.0,STARLINK-3576,PAYLOAD,2024-03-28 15:08:57,15.08876712,0.0001425,53.2169,311.3662,88.6748,271.4408,0.0010555,0.00016567,0.0,0 STARLINK-3576,1 51883U 22022AH  24088.63122629  .00016567  00000-0  10555-2 0  9999,2 51883  53.2169 311.3662 0001425  88.6748 271.4408 15.08876712115893,6917.768,95.435,540.619,538.647,0.0
51883.0,STARLINK-3576,PAYLOAD,2024-03-28 21:30:30,15.08855615,4.35e-05,53.2174,310.1769,92.3435,267.7607,5.9061e-05,6.53e-06,0.0,0 STARLINK-3576,1 51883U 22022AH  24088.89618278  .00000653  00000-0  59061-4 0  9993,2 51883  53.2174 310.1769 0000435  92.3435 267.7607 15.08855615115932,6917.833,95.437,539.999,539.397,0.0
51883.0,STARLINK-3576,PAYLOAD,2024-03-29 00:41:16,15.08857065,9.99e-05,53.2175,309.5811,99.3514,260.7591,0.00015696,2.212e-05,0.0,0 STARLINK-3576,1 51883U 22022AH  24089.02866236  .00002212  00000-0  15696-3 0  9996,2 51883  53.2175 309.5811 0000999  99.3514 260.7591 15.08857065115951,6917.828,95.436,540.384,539.002,0.0
51883.0,STARLINK-3576,PAYLOAD,2024-03-29 21:21:17,15.08843546,0.0001888,53.2163,305.7199,104.6513,255.4689,0.000261,3.869e-05,0.0,0 STARLINK-3576,1 51883U 22022AH  24089.88978477  .00003869  00000-0  26100-3 0  9992,2 51883  53.2163 305.7199 0001888 104.6513 255.4689 15.08843546116085,6917.87,95.437,541.041,538.428,0.0
51883.0,STARLINK-3576,PAYLOAD,2024-03-30 21:12:04,15.08840208,0.0001116,53.2176,301.2574,90.7594,269.3526,0.00015919,2.247e-05,0.0,0 STARLINK-3576,1 51883U 22022AH  24090.88338839  .00002247  00000-0  15919-3 0  9991,2 51883  53.2176 301.2574 0001116  90.7594 269.3526 15.08840208116238,6917.88,95.438,540.517,538.973,0.0
51883.0,STARLINK-3576,PAYLOAD,2024-03-31 13:05:56,15.08838445,0.0001049,53.2161,298.2832,88.2519,271.8593,9.3396e-05,1.199e-05,0.0,0 STARLINK-3576,1 51883U 22022AH  24091.54578980  .00001199  00000-0  93396-4 0  9999,2 51883  53.2161 298.2832 0001049  88.2519 271.8593 15.08838445116331,6917.885,95.438,540.476,539.024,0.0
51883.0,STARLINK-3576,PAYLOAD,2024-03-31 21:02:51,15.08847316,0.0001042,53.2153,296.7967,90.7492,269.362,0.00026688,3.963e-05,0.0,0 STARLINK-3576,1 51883U 22022AH  24091.87698537  .00003963  00000-0  26688-3 0  9996,2 51883  53.2153 296.7967 0001042  90.7492 269.3620 15.08847316116380,6917.858,95.437,540.444,539.002,0.0
51883.0,STARLINK-3576,PAYLOAD,2024-04-01 00:13:37,15.08852434,0.0001059,53.2149,296.2016,89.6871,270.4242,0.00036356,5.505e-05,0.0,0 STARLINK-3576,1 51883U 22022AH  24092.00946330  .00005505  00000-0  36356-3 0  9996,2 51883  53.2149 296.2016 0001059  89.6871 270.4242 15.08852434116404,6917.842,95.437,540.44,538.975,0.0
51883.0,STARLINK-3576,PAYLOAD,2024-04-01 12:56:42,15.08855675,0.0002858,53.2157,293.8227,77.9378,282.1934,0.00039878,6.067e-05,0.0,0 STARLINK-3576,1 51883U 22022AH  24092.53938543  .00006067  00000-0  39878-3 0  9997,2 51883  53.2157 293.8227 0002858  77.9378 282.1934 15.08855675116486,6917.832,95.437,541.675,537.72,0.0
51883.0,STARLINK-3576,PAYLOAD,2024-04-01 19:18:15,15.08834566,0.0001131,53.2154,292.6338,83.011,277.101,-1.5823e-05,-5.4e-06,0.0,0 STARLINK-3576,1 51883U 22022AH  24092.80434942 -.00000540  00000-0 -15823-4 0  9998,2 51883  53.2154 292.6338 0001131  83.0110 277.1010 15.08834566116528,6917.897,95.438,540.544,538.98,0.0
51883.0,STARLINK-3576,PAYLOAD,2024-04-02 06:25:57,15.08840732,0.0001147,53.2155,290.5521,79.4252,280.687,0.00047372,7.26e-05,0.0,0 STARLINK-3576,1 51883U 22022AH  24093.26802728  .00007260  00000-0  47372-3 0  9997,2 51883  53.2155 290.5521 0001147  79.4252 280.6870 15.08840732116595,6917.878,95.438,540.537,538.95,0.0
51883.0,STARLINK-3576,PAYLOAD,2024-04-02 19:09:03,15.08837585,0.0001462,53.2171,288.1734,78.0516,282.064,0.00043781,6.686e-05,0.0,0 STARLINK-3576,1 51883U 22022AH  24093.79795217  .00006686  00000-0  43781-3 0  9990,2 51883  53.2171 288.1734 0001462  78.0516 282.0640 15.08837585116672,6917.888,95.438,540.764,538.741,0.0
51883.0,STARLINK-3576,PAYLOAD,2024-04-02 22:19:49,15.08838484,0.000126,53.2159,287.5785,79.6249,280.4885,0.0004541,6.946e-05,0.0,0 STARLINK-3576,1 51883U 22022AH  24093.93043223  .00006946  00000-0  45410-3 0  9999,2 51883  53.2159 287.5785 0001260  79.6249 280.4885 15.08838484116697,6917.885,95.438,540.622,538.878,0.0
51883.0,STARLINK-3576,PAYLOAD,2024-04-03 12:38:17,15.088425,0.0001481,53.2156,284.904,75.0695,285.0461,0.00039963,6.078e-05,0.0,0 STARLINK-3576,1 51883U 22022AH  24094.52659319  .00006078  00000-0  39963-3 0  9996,2 51883  53.2156 284.9040 0001481  75.0695 285.0461 15.08842500116784,6917.873,95.437,540.762,538.713,0.0
51883.0,STARLINK-3576,PAYLOAD,2024-04-03 18:59:50,15.08840711,0.0001385,53.2164,283.7131,81.4335,278.6814,0.00026127,3.873e-05,0.0,0 STARLINK-3576,1 51883U 22022AH  24094.79155376  .00003873  00000-0  26127-3 0  9997,2 51883  53.2164 283.7131 0001385  81.4335 278.6814 15.08840711116823,6917.878,95.438,540.701,538.785,0.0
51883.0,STARLINK-3576,PAYLOAD,2024-04-03 22:10:36,15.08842314,0.0001386,53.2169,283.1169,88.8613,271.2538,0.00026576,3.944e-05,0.0,0 STARLINK-3576,1 51883U 22022AH  24094.92403347  .00003944  00000-0  26576-3 0  9993,2 51883  53.2169 283.1169 0001386  88.8613 271.2538 15.08842314116849,6917.873,95.437,540.697,538.779,0.0
51883.0,STARLINK-3576,PAYLOAD,2024-04-04 06:07:32,15.08844165,0.0001427,53.2173,281.6298,91.993,268.1225,0.00026451,3.925e-05,0.0,0 STARLINK-3576,1 51883U 22022AH  24095.25523264  .00003925  00000-0  26451-3 0  9992,2 51883  53.2173 281.6298 0001427  91.9930 268.1225 15.08844165116892,6917.868,95.437,540.72,538.745,0.0
51883.0,STARLINK-3576,PAYLOAD,2024-04-04 18:50:37,15.08842983,0.0001397,53.2173,279.2511,92.0953,268.0199,0.00025985,3.85e-05,0.0,0 STARLINK-3576,1 51883U 22022AH  24095.78515341  .00003850  00000-0  25985-3 0  9995,2 51883  53.2173 279.2511 0001397  92.0953 268.0199 15.08842983116970,6917.871,95.437,540.703,538.77,0.0
51883.0,STARLINK-3576,PAYLOAD,2024-04-05 12:19:51,15.08845673,0.0001366,53.217,275.98,92.2456,267.8693,0.00017933,2.568e-05,0.0,0 STARLINK-3576,1 51883U 22022AH  24096.51379041  .00002568  00000-0  17933-3 0  9991,2 51883  53.2170 275.9800 0001366  92.2456 267.8693 15.08845673117085,6917.863,95.437,540.673,538.783,0.0
51883.0,STARLINK-3576,PAYLOAD,2024-04-05 18:41:24,15.08843389,0.0001346,53.2165,274.7913,89.7598,270.3548,0.00011621,1.562e-05,0.0,0 STARLINK-3576,1 51883U 22022AH  24096.77875075  .00001562  00000-0  11621-3 0  9998,2 51883  53.2165 274.7913 0001346  89.7598 270.3548 15.08843389117122,6917.87,95.437,540.666,538.804,0.0
51883.0,STARLINK-3576,PAYLOAD,2024-04-06 12:10:38,15.08841017,0.0001185,53.2164,271.5204,86.7535,273.3592,8.5479e-05,1.073e-05,0.0,0 STARLINK-3576,1 51883U 22022AH  24097.50739102  .00001073  00000-0  85479-4 0  9990,2 51883  53.2164 271.5204 0001185  86.7535 273.3592 15.08841017117238,6917.877,95.437,540.562,538.923,0.0
51883.0,STARLINK-3576,PAYLOAD,2024-04-06 18:32:11,15.08837014,0.0001212,53.2161,270.3302,87.0249,273.0882,1.4609e-05,-5.5e-07,0.0,0 STARLINK-3576,1 51883U 22022AH  24097.77235289 -.00000055  00000-0  14609-4 0  9993,2 51883  53.2161 270.3302 0001212  87.0249 273.0882 15.08837014117273,6917.89,95.438,540.593,538.916,0.0
51883.0,STARLINK-3576,PAYLOAD,2024-04-07 10:26:02,15.08835726,0.0001146,53.2158,267.3552,80.8431,279.269,1.465e-05,-5.5e-07,0.0,0 STARLINK-3576,1 51883U 22022AH  24098.43475438 -.00000055  00000-0  14650-4 0  9995,2 51883  53.2158 267.3552 0001146  80.8431 279.2690 15.08835726117376,6917.893,95.438,540.551,538.966,0.0
51883.0,STARLINK-3576,PAYLOAD,2024-04-07 18:22:58,15.08834901,0.0001692,53.2179,265.8694,93.5591,266.5594,7.8421e-06,-1.63e-06,0.0,0 STARLINK-3576,1 51883U 22022AH  24098.76595571 -.00000163  00000-0  78421-5 0  9999,2 51883  53.2179 265.8694 0001692  93.5591 266.5594 15.08834901117425,6917.896,95.438,540.931,538.59,0.0
51883.0,STARLINK-3576,PAYLOAD,2024-04-08 10:16:50,15.08836209,0.0001738,53.2231,262.8976,90.4573,269.6619,9.3113e-05,1.194e-05,0.0,0 STARLINK-3576,1 51883U 22022AH  24099.42835996  .00001194  00000-0  93113-4 0  9999,2 51883  53.2231 262.8976 0001738  90.4573 269.6619 15.08836209117527,6917.892,95.438,540.959,538.555,0.0
51883.0,STARLINK-3576,PAYLOAD,2024-04-10 03:36:51,15.08843175,0.0001639,53.2184,255.1636,87.273,272.845,7.4338e-05,8.95e-06,0.0,0 STARLINK-3576,1 51883U 22022AH  24101.15059747  .00000895  00000-0  74338-4 0  9990,2 51883  53.2184 255.1636 0001639  87.2730 272.8450 15.08843175117788,6917.871,95.437,540.87,538.602,0.0
51883.0,STARLINK-3576,PAYLOAD,2024-04-10 09:58:24,15.08842893,0.0001622,53.218,253.974,87.552,272.5658,6.9723e-05,8.22e-06,0.0,0 STARLINK-3576,1 51883U 22022AH  24101.41555748  .00000822  00000-0  69723-4 0  9993,2 51883  53.2180 253.9740 0001622  87.5520 272.5658 15.08842893117826,6917.872,95.437,540.859,538.614,0.0
51883.0,STARLINK-3576,PAYLOAD,2024-04-10 16:19:56,15.08842887,0.0001499,53.2155,252.7858,83.9226,276.1937,9.8698e-05,1.283e-05,0.0,0 STARLINK-3576,1 51883U 22022AH  24101.68051777  .00001283  00000-0  98698-4 0  9990,2 51883  53.2155 252.7858 0001499  83.9226 276.1937 15.08842887117867,6917.872,95.437,540.774,538.7,0.0
51883.0,STARLINK-3576,PAYLOAD,2024-04-11 12:59:57,15.0884543,0.0002092,53.2151,248.919,88.6082,271.515,1.0786e-05,-1.17e-06,0.0,0 STARLINK-3576,1 51883U 22022AH  24102.54164064 -.00000117  00000-0  10786-4 0  9998,2 51883  53.2151 248.9190 0002092  88.6082 271.5150 15.08845430117998,6917.864,95.437,541.176,538.282,0.0
